ADRAS-J                 
1 58992U 24034A   24181.83576801  .00005288  00000+0  49014-3 0  9993
2 58992  98.2121 155.4284 0044155   9.7009 350.5052 14.94190373 19754
